SES-7 (PROTOSTAR 2)     
1 34941U 09027A   26061.96609653  .00000000  00000+0  00000+0 0  9996
2 34941   0.0235 126.4490 0001539 180.5422 309.8229  1.00269046 61568
MEASAT-3A               
1 35362U 09032A   26061.82892068 -.00000127  00000+0  00000+0 0  9990
2 35362   0.0387 344.8865 0003539   2.8054 271.3069  1.00271554  6960
GOES 14                 
1 35491U 09033A   26062.12744012  .00000114  00000+0  00000+0 0  9998
2 35491   1.4156  84.4389 0002190 295.8945  28.9504  1.00123619  5524
FM-5                    
1 35493U 09034A   26061.36850308 -.00000217  00000+0  00000+0 0  9997
2 35493   0.0413 274.2738 0001015 316.0082 336.3547  1.00271603 45576
TERRESTAR-1             
1 35496U 09035A   26062.03864125 -.00000069  00000+0  00000+0 0  9993
2 35496   5.0957  48.8325 0002904 299.6620  75.2154  1.00270517 61075
ASIASAT 5               
1 35696U 09042A   26062.03595021 -.00000323  00000+0  00000+0 0  9992
2 35696   0.0297 239.0183 0001479  89.8694 305.3724  1.00272271 60642
JCSAT-12 (JCSAT-RA)     
1 35755U 09044A   26061.97086322 -.00000344  00000+0  00000+0 0  9994
2 35755   0.0205 118.4227 0002006 182.4918 341.3684  1.00271515 60546
OPTUS D3                
1 35756U 09044B   26061.33379925 -.00000165  00000+0  00000+0 0  9990
2 35756   0.8816 269.7168 0003178  64.4153 102.2385  1.00272005 60499
NIMIQ 5                 
1 35873U 09050A   26062.14280992 -.00000272  00000+0  00000+0 0  9991
2 35873   0.0560 271.8669 0002678  73.4888 154.2346  1.00269984 60289
AMAZONAS 2              
1 35942U 09054A   26062.13725227 -.00000298  00000+0  00000+0 0  9994
2 35942   1.5401  84.4902 0003492 256.5603 168.4551  1.00273095 60124
COMSATBW-1              
1 35943U 09054B   26062.09975346  .00000009  00000+0  00000+0 0  9998
2 35943   0.0626  88.8325 0003618 268.1978 262.7338  1.00273593 60246
NSS-12                  
1 36032U 09058A   26062.10530860  .00000056  00000+0  00000+0 0  9994
2 36032   0.0082 279.4528 0005059  46.9426 289.3690  1.00271953 59855
THOR 6                  
1 36033U 09058B   26061.97961373 -.00000026  00000+0  00000+0 0  9994
2 36033   0.0107 145.5289 0001892 205.4094 161.6164  1.00272330 59943
INTELSAT 14 (IS-14)     
1 36097U 09064A   26062.01140240 -.00000290  00000+0  00000+0 0  9992
2 36097   0.0162  95.2555 0002570 259.5169 125.0994  1.00271619 59548
EUTELSAT 36B            
1 36101U 09065A   26062.10530860  .00000097  00000+0  00000+0 0  9994
2 36101   0.2236  77.4812 0005883 265.5487 266.2198  1.00271057 59647
INTELSAT 15 (IS-15)     
1 36106U 09067A   26061.62113115 -.00000202  00000+0  00000+0 0  9996
2 36106   0.0205  97.2427 0002371 249.6344 122.2648  1.00271568 40167
DIRECTV 12              
1 36131U 09075A   26062.15392248 -.00000119  00000+0  00000+0 0  9995
2 36131   0.0185 328.1886 0000339  34.4410 110.9805  1.00272001 45496
