[{"OBJECT_NAME":"SES-7 (PROTOSTAR 2)","OBJECT_ID":"2009-027A","EPOCH":"2026-03-02T23:11:10.740192","MEAN_MOTION":1.00269046,"ECCENTRICITY":0.0001539,"INCLINATION":0.0235,"RA_OF_ASC_NODE":126.449,"ARG_OF_PERICENTER":180.5422,"MEAN_ANOMALY":309.8229,"EPHEMERIS_TYPE":0,"CLASSIFICATION_TYPE":"U","NORAD_CAT_ID":34941,"ELEMENT_SET_NO":999,"REV_AT_EPOCH":6156,"BSTAR":0,"MEAN_MOTION_DOT":0,"MEAN_MOTION_DDOT":0},{"OBJECT_NAME":"MEASAT-3A","OBJECT_ID":"2009-032A","EPOCH":"2026-03-02T19:53:38.746752","MEAN_MOTION":1.00271554,"ECCENTRICITY":0.0003539,"INCLINATION":0.0387,"RA_OF_ASC_NODE":344.8865,"ARG_OF_PERICENTER":2.8054,"MEAN_ANOMALY":271.3069,"EPHEMERIS_TYPE":0,"CLASSIFICATION_TYPE":"U","NORAD_CAT_ID":35362,"ELEMENT_SET_NO":999,"REV_AT_EPOCH":696,"BSTAR":0,"MEAN_MOTION_DOT":-1.27e-6,"MEAN_MOTION_DDOT":0},{"OBJECT_NAME":"GOES 14","OBJECT_ID":"2009-033A","EPOCH":"2026-03-03T03:03:30.826368","MEAN_MOTION":1.00123619,"ECCENTRICITY":0.000219,"INCLINATION":1.4156,"RA_OF_ASC_NODE":84.4389,"ARG_OF_PERICENTER":295.8945,"MEAN_ANOMALY":28.9504,"EPHEMERIS_TYPE":0,"CLASSIFICATION_TYPE":"U","NORAD_CAT_ID":35491,"ELEMENT_SET_NO":999,"REV_AT_EPOCH":552,"BSTAR":0,"MEAN_MOTION_DOT":1.14e-6,"MEAN_MOTION_DDOT":0},{"OBJECT_NAME":"FM-5","OBJECT_ID":"2009-034A","EPOCH":"2026-03-02T08:50:38.666112","MEAN_MOTION":1.00271603,"ECCENTRICITY":0.00010155,"INCLINATION":0.0413,"RA_OF_ASC_NODE":274.2738,"ARG_OF_PERICENTER":316.0082,"MEAN_ANOMALY":336.3547,"EPHEMERIS_TYPE":0,"CLASSIFICATION_TYPE":"U","NORAD_CAT_ID":35493,"ELEMENT_SET_NO":999,"REV_AT_EPOCH":4557,"BSTAR":0,"MEAN_MOTION_DOT":-2.17e-6,"MEAN_MOTION_DDOT":0},{"OBJECT_NAME":"TERRESTAR-1","OBJECT_ID":"2009-035A","EPOCH":"2026-03-03T00:55:38.604000","MEAN_MOTION":1.00270517,"ECCENTRICITY":0.0002904,"INCLINATION":5.0957,"RA_OF_ASC_NODE":48.8325,"ARG_OF_PERICENTER":299.662,"MEAN_ANOMALY":75.2154,"EPHEMERIS_TYPE":0,"CLASSIFICATION_TYPE":"U","NORAD_CAT_ID":35496,"ELEMENT_SET_NO":999,"REV_AT_EPOCH":6107,"BSTAR":0,"MEAN_MOTION_DOT":-6.9e-7,"MEAN_MOTION_DDOT":0},{"OBJECT_NAME":"ASIASAT 5","OBJECT_ID":"2009-042A","EPOCH":"2026-03-03T00:51:46.098144","MEAN_MOTION":1.00272271,"ECCENTRICITY":0.0001479,"INCLINATION":0.0297,"RA_OF_ASC_NODE":239.0183,"ARG_OF_PERICENTER":89.8694,"MEAN_ANOMALY":305.3724,"EPHEMERIS_TYPE":0,"CLASSIFICATION_TYPE":"U","NORAD_CAT_ID":35696,"ELEMENT_SET_NO":999,"REV_AT_EPOCH":6064,"BSTAR":0,"MEAN_MOTION_DOT":-3.23e-6,"MEAN_MOTION_DDOT":0},{"OBJECT_NAME":"JCSAT-12 (JCSAT-RA)","OBJECT_ID":"2009-044A","EPOCH":"2026-03-02T23:18:02.582208","MEAN_MOTION":1.00271515,"ECCENTRICITY":0.0002006,"INCLINATION":0.0205,"RA_OF_ASC_NODE":118.4227,"ARG_OF_PERICENTER":182.4918,"MEAN_ANOMALY":341.3684,"EPHEMERIS_TYPE":0,"CLASSIFICATION_TYPE":"U","NORAD_CAT_ID":35755,"ELEMENT_SET_NO":999,"REV_AT_EPOCH":6054,"BSTAR":0,"MEAN_MOTION_DOT":-3.44e-6,"MEAN_MOTION_DDOT":0},{"OBJECT_NAME":"OPTUS D3","OBJECT_ID":"2009-044B","EPOCH":"2026-03-02T08:00:40.255200","MEAN_MOTION":1.00272005,"ECCENTRICITY":0.00031783,"INCLINATION":0.8816,"RA_OF_ASC_NODE":269.7168,"ARG_OF_PERICENTER":64.4153,"MEAN_ANOMALY":102.2385,"EPHEMERIS_TYPE":0,"CLASSIFICATION_TYPE":"U","NORAD_CAT_ID":35756,"ELEMENT_SET_NO":999,"REV_AT_EPOCH":6049,"BSTAR":0,"MEAN_MOTION_DOT":-1.65e-6,"MEAN_MOTION_DDOT":0},{"OBJECT_NAME":"NIMIQ 5","OBJECT_ID":"2009-050A","EPOCH":"2026-03-03T03:25:38.777088","MEAN_MOTION":1.00269984,"ECCENTRICITY":0.0002678,"INCLINATION":0.056,"RA_OF_ASC_NODE":271.8669,"ARG_OF_PERICENTER":73.4888,"MEAN_ANOMALY":154.2346,"EPHEMERIS_TYPE":0,"CLASSIFICATION_TYPE":"U","NORAD_CAT_ID":35873,"ELEMENT_SET_NO":999,"REV_AT_EPOCH":6028,"BSTAR":0,"MEAN_MOTION_DOT":-2.72e-6,"MEAN_MOTION_DDOT":0},{"OBJECT_NAME":"AMAZONAS 2","OBJECT_ID":"2009-054A","EPOCH":"2026-03-03T03:17:38.596128","MEAN_MOTION":1.00273095,"ECCENTRICITY":0.0003492,"INCLINATION":1.5401,"RA_OF_ASC_NODE":84.4902,"ARG_OF_PERICENTER":256.5603,"MEAN_ANOMALY":168.4551,"EPHEMERIS_TYPE":0,"CLASSIFICATION_TYPE":"U","NORAD_CAT_ID":35942,"ELEMENT_SET_NO":999,"REV_AT_EPOCH":6012,"BSTAR":0,"MEAN_MOTION_DOT":-2.98e-6,"MEAN_MOTION_DDOT":0},{"OBJECT_NAME":"COMSATBW-1","OBJECT_ID":"2009-054B","EPOCH":"2026-03-03T02:23:38.698944","MEAN_MOTION":1.00273593,"ECCENTRICITY":0.0003618,"INCLINATION":0.0626,"RA_OF_ASC_NODE":88.8325,"ARG_OF_PERICENTER":268.1978,"MEAN_ANOMALY":262.7338,"EPHEMERIS_TYPE":0,"CLASSIFICATION_TYPE":"U","NORAD_CAT_ID":35943,"ELEMENT_SET_NO":999,"REV_AT_EPOCH":6024,"BSTAR":0,"MEAN_MOTION_DOT":9.0e-8,"MEAN_MOTION_DDOT":0},{"OBJECT_NAME":"NSS-12","OBJECT_ID":"2009-058A","EPOCH":"2026-03-03T02:31:38.663040","MEAN_MOTION":1.00271953,"ECCENTRICITY":0.0005059,"INCLINATION":0.0082,"RA_OF_ASC_NODE":279.4528,"ARG_OF_PERICENTER":46.9426,"MEAN_ANOMALY":289.369,"EPHEMERIS_TYPE":0,"CLASSIFICATION_TYPE":"U","NORAD_CAT_ID":36032,"ELEMENT_SET_NO":999,"REV_AT_EPOCH":5985,"BSTAR":0,"MEAN_MOTION_DOT":5.6e-7,"MEAN_MOTION_DDOT":0},{"OBJECT_NAME":"THOR 6","OBJECT_ID":"2009-058B","EPOCH":"2026-03-02T23:30:38.626272","MEAN_MOTION":1.0027233,"ECCENTRICITY":0.0001892,"INCLINATION":0.0107,"RA_OF_ASC_NODE":145.5289,"ARG_OF_PERICENTER":205.4094,"MEAN_ANOMALY":161.6164,"EPHEMERIS_TYPE":0,"CLASSIFICATION_TYPE":"U","NORAD_CAT_ID":36033,"ELEMENT_SET_NO":999,"REV_AT_EPOCH":5994,"BSTAR":0,"MEAN_MOTION_DOT":-2.6e-7,"MEAN_MOTION_DDOT":0},{"OBJECT_NAME":"INTELSAT 14 (IS-14)","OBJECT_ID":"2009-064A","EPOCH":"2026-03-03T00:16:25.167360","MEAN_MOTION":1.00271619,"ECCENTRICITY":0.000257,"INCLINATION":0.0162,"RA_OF_ASC_NODE":95.2555,"ARG_OF_PERICENTER":259.5169,"MEAN_ANOMALY":125.0994,"EPHEMERIS_TYPE":0,"CLASSIFICATION_TYPE":"U","NORAD_CAT_ID":36097,"ELEMENT_SET_NO":999,"REV_AT_EPOCH":5954,"BSTAR":0,"MEAN_MOTION_DOT":-2.9e-6,"MEAN_MOTION_DDOT":0},{"OBJECT_NAME":"EUTELSAT 36B","OBJECT_ID":"2009-065A","EPOCH":"2026-03-03T02:31:38.663040","MEAN_MOTION":1.00271057,"ECCENTRICITY":0.0005883,"INCLINATION":0.2236,"RA_OF_ASC_NODE":77.4812,"ARG_OF_PERICENTER":265.5487,"MEAN_ANOMALY":266.2198,"EPHEMERIS_TYPE":0,"CLASSIFICATION_TYPE":"U","NORAD_CAT_ID":36101,"ELEMENT_SET_NO":999,"REV_AT_EPOCH":5964,"BSTAR":0,"MEAN_MOTION_DOT":9.7e-7,"MEAN_MOTION_DDOT":0},{"OBJECT_NAME":"INTELSAT 15 (IS-15)","OBJECT_ID":"2009-067A","EPOCH":"2026-03-02T14:54:25.731360","MEAN_MOTION":1.00271568,"ECCENTRICITY":0.0002371,"INCLINATION":0.0205,"RA_OF_ASC_NODE":97.2427,"ARG_OF_PERICENTER":249.6344,"MEAN_ANOMALY":122.2648,"EPHEMERIS_TYPE":0,"CLASSIFICATION_TYPE":"U","NORAD_CAT_ID":36106,"ELEMENT_SET_NO":999,"REV_AT_EPOCH":4016,"BSTAR":0,"MEAN_MOTION_DOT":-2.02e-6,"MEAN_MOTION_DDOT":0},{"OBJECT_NAME":"DIRECTV 12","OBJECT_ID":"2009-075A","EPOCH":"2026-03-03T03:41:38.902272","MEAN_MOTION":1.00272001,"ECCENTRICITY":3.39e-5,"INCLINATION":0.0185,"RA_OF_ASC_NODE":328.1886,"ARG_OF_PERICENTER":34.441,"MEAN_ANOMALY":110.9805,"EPHEMERIS_TYPE":0,"CLASSIFICATION_TYPE":"U","NORAD_CAT_ID":36131,"ELEMENT_SET_NO":999,"REV_AT_EPOCH":4549,"BSTAR":0,"MEAN_MOTION_DOT":-1.19e-6,"MEAN_MOTION_DDOT":0}]
